0 SL-12 DEB
1 28685U 92047AJ  13279.74338316  .00150148  25974-5  75118-2 0  7474
2 28685 064.1495 187.9447 2662174 313.3802 048.5652 10.01741124296938
0 SL-12 DEB
1 28685U 92047AJ  13281.73925153  .00204496  39774-5  10055-1 0  7485
2 28685 064.1470 185.0347 2660222 313.1935 048.4629 10.02353843297130
0 SL-12 DEB
1 28685U 92047AJ  13285.72702272  .00161719  28684-5  78991-2 0  7496
2 28685 064.1544 179.2192 2653495 312.8440 049.1292 10.03792861297532
0 SL-12 DEB
1 28685U 92047AJ  13286.72316872  .00164310  29308-5  79939-2 0  7503
2 28685 064.1527 177.7615 2652273 312.7569 049.4102 10.04089468297637
0 SL-12 DEB
1 28685U 92047AJ  13287.71931885  .00216049  43406-5  10549-1 0  7514
2 28685 064.1523 176.3036 2650339 312.6798 050.8177 10.04419206297735
0 SL-12 DEB
1 28685U 92047AJ  13292.69349387  .00164217  29445-5  81444-2 0  7527
2 28685 064.1495 169.0160 2640786 312.2804 052.9053 10.06124679298230
0 SL-12 DEB
1 28685U 92047AJ  13293.68653716  .00164601  29557-5  80925-2 0  7536
2 28685 064.1427 167.5526 2639993 312.1929 050.3005 10.06401002298337
